CCSDS_OEM_VERS = 2.0
CREATION_DATE  = 2023-06-15T03:40:25.715
ORIGINATOR     = NASA/JSC/FOD/TOPO

META_START
OBJECT_NAME          = ISS
OBJECT_ID            = 1998-067-A
CENTER_NAME          = Earth
REF_FRAME            = EME2000
TIME_SYSTEM          = UTC
START_TIME           = 2023-06-14T12:00:00.000
USEABLE_START_TIME   = 2023-06-14T12:00:00.000
USEABLE_STOP_TIME    = 2023-06-29T12:00:00.000
STOP_TIME            = 2023-06-29T12:00:00.000
META_STOP

COMMENT Source: This file was produced by the TOPO office within FOD at JSC.
COMMENT Units are in kg and m^2
COMMENT MASS=466338.00
COMMENT DRAG_AREA=1628.40
COMMENT DRAG_COEFF=2.10
COMMENT SOLAR_RAD_AREA=0.00
COMMENT SOLAR_RAD_COEFF=0.00
COMMENT Orbits start at the ascending node epoch
COMMENT ISS first asc. node: EPOCH = 2023-06-14T12:57:37.157 $ ORBIT = 137 $ LAN(DEG) = -115.32795
COMMENT ISS last asc. node : EPOCH = 2023-06-29T11:52:10.831 $ ORBIT = 369 $ LAN(DEG) = 172.16868
COMMENT Begin sequence of events
COMMENT TRAJECTORY EVENT SUMMARY:
COMMENT 
COMMENT |       EVENT        |       TIG        | ORB |   DV    |   HA    |   HP    |
COMMENT |                    |       GMT        |     |   M/S   |   KM    |   KM    |
COMMENT |                    |                  |     |  (F/S)  |  (NM)   |  (NM)   |
COMMENT =============================================================================
COMMENT  GMT167 Reboost        167:06:27:00.000             1.2     423.4     404.8
COMMENT                                                    (3.9)   (228.6)   (218.6)
COMMENT 
COMMENT  SpX-28 Undocking      178:12:00:00.000             0.0     424.1     406.2
COMMENT                                                    (0.0)   (229.0)   (219.3)
COMMENT 
COMMENT =============================================================================
COMMENT End sequence of events
2023-06-23T18:30:30.000 4466.474347529460 79.293330382315 5105.501386563010 -2.01314165145441 7.21413844679765 1.64525205164749
2023-06-23T18:34:30.000 3826.421003460020 1786.712145420140 5308.938123126740 -3.28795571274765 6.92730309077489 0.03970853000392
2023-06-23T18:38:30.000 2907.483913761610 3363.911771457630 5124.343486709130 -4.32299646503667 6.13561339651625 -1.56855087893662
2023-06-23T18:42:30.000 1776.645342583490 4695.940265414310 4565.219962673940 -5.04302194352083 4.89668070422149 -3.06226095880036
2023-06-23T18:46:30.000 516.303597957890 5685.673757792720 3672.389118014570 -5.39556221744753 3.30058148492273 -4.33237025541955
2023-06-23T18:50:30.000 -781.680217950507 6260.911829197350 2511.073497990320 -5.35476978486846 1.46374341658671 -5.28586270705398
2023-06-23T18:54:30.000 -2022.686277310640 6379.744286636860 1166.176174462440 -4.92370131390993 -0.47940205742684 -5.85280132186608
2023-06-23T18:58:30.000 -3116.317774286920 6033.700849802970 -263.952428887343 -4.13428944840569 -2.38637177301738 -5.99183227433881
2023-06-23T19:02:30.000 -3983.093813169270 5248.384737054820 -1674.829725220400 -3.04496944691084 -4.11756918263665 -5.69353299688719
2023-06-23T19:06:30.000 -4560.293675105910 4081.469670982730 -2963.618291096810 -1.73605698537638 -5.54701733263833 -4.98088481967574
2023-06-23T19:10:30.000 -4806.482370402050 2618.273406340230 -4036.699294265300 -0.30342546714448 -6.57176568384098 -3.90715775295546
2023-06-23T19:14:30.000 -4704.352998801990 965.309604591579 -4816.432393823590 1.14900713735484 -7.11908364960540 -2.55130883681618
2023-06-23T19:18:30.000 -4261.745726329320 -757.542791228311 -5246.597722659700 2.51682254578812 -7.15082876893980 -1.01175727615877
2023-06-23T19:22:30.000 -3510.913947862640 -2425.617832664900 -5296.237665632700 3.70213001896876 -6.66541536148592 0.60061200793228
2023-06-23T19:26:30.000 -2506.161252950010 -3918.257413313060 -4961.745270191390 4.62008436307751 -5.69758101556227 2.17005526443213
2023-06-23T19:30:30.000 -1320.024289695040 -5127.276563118330 -4267.109450282550 5.20443108526179 -4.31599658881286 3.58361430301195
2023-06-23T19:34:30.000 -38.236200868908 -5964.649326732420 -3262.335810909560 5.41215313205395 -2.61912098771731 4.73870292130334
2023-06-23T19:38:30.000 1246.297294278910 -6368.946301294220 -2020.061406169490 5.22693549309009 -0.72891078163861 5.55048735375462
2023-06-23T19:42:30.000 2440.158675499880 -6310.023085884070 -630.487714934795 4.66098870766992 1.21742078747836 5.95844128008177
2023-06-23T19:46:30.000 3456.275926354580 -5791.498062674240 805.109983870447 3.75469486643118 3.07751460636374 5.93146825538778
2023-06-23T19:50:30.000 4220.394356326660 -4850.704296878150 2181.820875942350 2.57387487775405 4.71455866635585 5.47064146044314
2023-06-23T19:54:30.000 4676.656684664700 -3556.065522215910 3398.912821078090 1.20503257509746 6.00802531887848 4.60950294546914
2023-06-23T19:58:30.000 4791.780623280170 -2002.012512923150 4367.355034815500 -0.25147237854031 6.86307872927720 3.41135091364942
2023-06-23T20:02:30.000 4557.461139507480 -301.945836137109 5016.391526833890 -1.68914685571050 7.21739807634173 1.96418144626380
2023-06-23T20:06:30.000 3990.903152399830 1420.138852294110 5298.690559145690 -3.00321993538058 7.04550472608379 0.37395340951624
2023-06-23T20:10:30.000 3133.485483960760 3038.724585805090 5193.720658462630 -4.09820840729873 6.36020232158353 -1.24332152135426
2023-06-23T20:14:30.000 2047.710773777940 4435.859266426520 4709.177285182710 -4.89457043145035 5.21132996086657 -2.76979488806022
2023-06-23T20:18:30.000 812.693917969717 5509.686257148820 3880.436343361810 -5.33427497084356 3.68243256910451 -4.09404041215017
2023-06-23T20:22:30.000 -481.560771938091 6181.884157411560 2768.027094000330 -5.38518049602789 1.88492951505817 -5.11914872617746
2023-06-23T20:26:30.000 -1740.715169769520 6403.453415792210 1453.264361880030 -5.04359166732348 -0.04971488111480 -5.76994365638595
2023-06-23T20:30:30.000 -2873.034315051170 6158.395356866180 32.287911209815 -4.33478921885120 -1.97969177994171 -5.99887329401551
2023-06-23T20:34:30.000 -3796.173857936630 5464.916922814510 -1391.065123501660 -3.31126329325831 -3.76361008664296 -5.78977970641016
2023-06-23T20:38:30.000 -4443.263782866140 4374.003452512410 -2712.994103147170 -2.04859730296588 -5.27147837295401 -5.15907202244199
2023-06-23T20:42:30.000 -4767.750677953700 2965.476665716780 -3837.402139000080 -0.63938523406915 -6.39445146413292 -4.15404741546869
2023-06-23T20:46:30.000 -4746.630427424300 1341.953348398470 -4682.863846668240 0.81397296223454 -7.05248133911376 -2.84881648465631
2023-06-23T20:50:30.000 -4381.903611755730 -378.733587774506 -5188.384173155700 2.20675603854211 -7.19947386115008 -1.33842023822934
2023-06-23T20:54:30.000 -3700.241198909200 -2072.039916764960 -5317.583659755700 3.43925312553535 -6.82576477996714 0.26828070401639
2023-06-23T20:58:30.000 -2750.986499470510 -3615.499190567810 -5061.136316316860 4.42327666100974 -5.95820580227093 1.85593442297995
2023-06-23T21:02:30.000 -1602.672251693100 -4897.315410854550 -4437.415897921720 5.08799393599392 -4.65838882188649 3.31037320390926
2023-06-23T21:06:30.000 -338.255737188936 -5824.274625321450 -3491.283378237930 5.38475421184565 -3.01877845733675 4.52627892014278
2023-06-23T21:10:30.000 950.682773041372 -6328.506743609080 -2291.072051674790 5.29087101442640 -1.15697008874917 5.41458554566665
2023-06-23T21:14:30.000 2170.472977377530 -6372.612111267310 -923.847733362584 4.81182719723671 0.79218274100918 5.90928469349301
2023-06-23T21:18:30.000 3232.187814328750 -5952.677140970610 510.809575396491 3.98152275227697 2.68621945533275 5.97287211643861
2023-06-23T21:22:30.000 4058.263024766970 -5098.808868836010 1908.106357148840 2.86018976741877 4.38595830412144 5.59974968449347
2023-06-23T21:26:30.000 4588.316887624470 -3873.030174160920 3165.826071249130 1.52985838011033 5.76633123972699 4.81686629711883
2023-06-23T21:30:30.000 4783.657545988670 -2364.714524660850 4191.947433253710 0.08809216120684 6.72595024661293 3.68168308915522
2023-06-23T21:34:30.000 4630.129843489030 -683.929720364548 4911.478622744410 -1.35956873568574 7.19483228965089 2.27769046673675
2023-06-23T21:38:30.000 4139.051275534000 1046.733845025780 5271.924140000280 -2.70764633219911 7.13910952124062 0.70766591517678
2023-06-23T21:42:30.000 3346.306777835700 2701.117030576050 5247.038297276540 -3.85812162404009 6.56307875598772 -0.91374157253022
2023-06-23T21:46:30.000 2309.701620915090 4158.655494823320 4838.686684470760 -4.72742437026815 5.50875495209317 -2.46833437452315
2023-06-23T21:50:30.000 1104.764643068730 5313.106440385980 4076.687359144770 -5.25229240049680 4.05276292708812 -3.84273862790851
2023-06-23T21:54:30.000 -180.698453788660 6080.272049743410 3016.682761264270 -5.39434712610155 2.30113805921203 -4.93643975098526
2023-06-23T21:58:30.000 -1452.986663315840 6404.209065513390 1736.141204196060 -5.14318748178827 0.38189612743121 -5.66922637398136
2023-06-23T22:02:30.000 -2619.385723699260 6261.421096179780 328.700774890697 -4.51742910694470 -1.56429335732887 -5.98746660127624
2023-06-23T22:06:30.000 -3595.029703359950 5662.625773508520 -1102.766044579250 -3.56344771992120 -3.39481762443076 -5.86834576782797
2023-06-23T22:10:30.000 -4309.173338289790 4651.900047140480 -2453.810308221360 -2.35174745534190 -4.97609325036350 -5.32159646760133
2023-06-23T22:14:30.000 -4710.340840071980 3303.269934494060 -3626.143518141850 -0.97133648711962 -6.19368364756142 -4.38842177128676
2023-06-23T22:18:30.000 -4769.949121332270 1715.077843374820 -4534.801747026650 0.47726307075850 -6.96056240857197 -3.13785309602806
2023-06-23T22:22:30.000 -4484.170747332820 2.671163419524 -5114.177530951530 1.88952306182712 -7.22276048249303 -1.66110869689873
2023-06-23T22:26:30.000 -3874.010562365480 -1709.943185925240 -5322.553278207330 3.16421623016352 -6.96239836757490 -0.06486908577612
2023-06-23T22:30:30.000 -2983.688870438280 -3298.897117297670 -5144.925479006790 4.21017152790083 -6.19843261270552 1.53622270226799
